{"type": "FeatureCollection", "features": [ {"type": "Feature", "properties": {"norad_id": 31365, "name": "FENGYUN 1C DEB", "group": "fengyun-1c-debris", "lat": -43.747154504707304, "lon": -126.61220878998303, "alt_km": 732.6360280196695, "timestamp": "2025-12-02T21:34:01.553072+00:00", "meta": {"OBJECT_NAME": "FENGYUN 1C DEB", "OBJECT_ID": "1999-025BRV", "EPOCH": "2025-12-01T04:32:54.064896", "MEAN_MOTION": 14.41592, "ECCENTRICITY": 0.004167, "INCLINATION": 98.6754, "RA_OF_ASC_NODE": 60.0561, "ARG_OF_PERICENTER": 253.437, "MEAN_ANOMALY": 106.2239, "EPHEMERIS_TYPE": 0, "CLASSIFICATION_TYPE": "U", "NORAD_CAT_ID": 31365, "ELEMENT_SET_NO": 999, "REV_AT_EPOCH": 96462, "BSTAR": 0.0025507, "MEAN_MOTION_DOT": 8.348e-05, "MEAN_MOTION_DDOT": 0}, "tle": {"line1": "1 31365U 99025BRV 25335.18951464  .00008348  00000+0  25507-2 0  9992", "line2": "2 31365  98.6754  60.0561 0041670 253.4370 106.2239 14.41592000964625"}}, "geometry": {"type": "Point", "coordinates": [-126.61220878998303, -43.747154504707304]}}, {"type": "Feature", "properties": {"norad_id": 31367, "name": "FENGYUN 1C DEB", "group": "fengyun-1c-debris", "lat": -74.08850242628355, "lon": -96.48483970277219, "alt_km": 778.9000025743444, "timestamp": "2025-12-02T21:34:01.553082+00:00", "meta": {"OBJECT_NAME": "FENGYUN 1C DEB", "OBJECT_ID": "1999-025BRX", "EPOCH": "2025-12-01T16:18:30.267072", "MEAN_MOTION": 14.4740408, "ECCENTRICITY": 0.00999451, "INCLINATION": 98.746, "RA_OF_ASC_NODE": 229.5709, "ARG_OF_PERICENTER": 49.3475, "MEAN_ANOMALY": 6.2787, "EPHEMERIS_TYPE": 0, "CLASSIFICATION_TYPE": "U", "NORAD_CAT_ID": 31367, "ELEMENT_SET_NO": 999, "REV_AT_EPOCH": 98306, "BSTAR": 0.00062003348, "MEAN_MOTION_DOT": 2.37e-05, "MEAN_MOTION_DDOT": 0}, "tle": {"line1": "1 31367U 99025BRX 25335.67951698  .00002370  00000+0  62003-3 0  9999", "line2": "2 31367  98.7460 229.5709 0099945  49.3475   6.2787 14.47404080983066"}}, "geometry": {"type": "Point", "coordinates": [-96.48483970277219, -74.08850242628355]}}, {"type": "Feature", "properties": {"norad_id": 31369, "name": "FENGYUN 1C DEB", "group": "fengyun-1c-debris", "lat": -64.84782817751349, "lon": 119.59795630455241, "alt_km": 828.8801862968712, "timestamp": "2025-12-02T21:34:01.553092+00:00", "meta": {"OBJECT_NAME": "FENGYUN 1C DEB", "OBJECT_ID": "1999-025BRZ", "EPOCH": "2025-12-02T05:15:55.988064", "MEAN_MOTION": 14.19388452, "ECCENTRICITY": 0.005489, "INCLINATION": 98.6175, "RA_OF_ASC_NODE": 317.7793, "ARG_OF_PERICENTER": 330.1727, "MEAN_ANOMALY": 47.9039, "EPHEMERIS_TYPE": 0, "CLASSIFICATION_TYPE": "U", "NORAD_CAT_ID": 31369, "ELEMENT_SET_NO": 999, "REV_AT_EPOCH": 64178, "BSTAR": 0.00040201, "MEAN_MOTION_DOT": 8.15e-06, "MEAN_MOTION_DDOT": 0}, "tle": {"line1": "1 31369U 99025BRZ 25336.21939801  .00000815  00000+0  40201-3 0  9992", "line2": "2 31369  98.6175 317.7793 0054890 330.1727  47.9039 14.19388452641789"}}, "geometry": {"type": "Point", "coordinates": [119.59795630455241, -64.84782817751349]}}, {"type": "Feature", "properties": {"norad_id": 31370, "name": "FENGYUN 1C DEB", "group": "fengyun-1c-debris", "lat": 4.462672544747158, "lon": -23.50632027512711, "alt_km": 843.2694016073592, "timestamp": "2025-12-02T21:34:01.553102+00:00", "meta": {"OBJECT_NAME": "FENGYUN 1C DEB", "OBJECT_ID": "1999-025BSA", "EPOCH": "2025-12-01T11:28:36.495552", "MEAN_MOTION": 14.09683379, "ECCENTRICITY": 0.00339887, "INCLINATION": 98.7534, "RA_OF_ASC_NODE": 335.8016, "ARG_OF_PERICENTER": 330.8573, "MEAN_ANOMALY": 29.07, "EPHEMERIS_TYPE": 0, "CLASSIFICATION_TYPE": "U", "NORAD_CAT_ID": 31370, "ELEMENT_SET_NO": 999, "REV_AT_EPOCH": 96135, "BSTAR": 0.00040658383, "MEAN_MOTION_DOT": 6.74e-06, "MEAN_MOTION_DDOT": 0}, "tle": {"line1": "1 31370U 99025BSA 25335.47820018  .00000674  00000+0  40658-3 0  9999", "line2": "2 31370  98.7534 335.8016 0033988 330.8573  29.0700 14.09683379961350"}}, "geometry": {"type": "Point", "coordinates": [-23.50632027512711, 4.462672544747158]}}, {"type": "Feature", "properties": {"norad_id": 31371, "name": "FENGYUN 1C DEB", "group": "fengyun-1c-debris", "lat": 81.16781079312258, "lon": -86.46590973763371, "alt_km": 927.1222193448966, "timestamp": "2025-12-02T21:34:01.553113+00:00", "meta": {"OBJECT_NAME": "FENGYUN 1C DEB", "OBJECT_ID": "1999-025BSB", "EPOCH": "2025-12-01T12:38:43.870560", "MEAN_MOTION": 14.04462226, "ECCENTRICITY": 0.00775934, "INCLINATION": 98.7675, "RA_OF_ASC_NODE": 8.9036, "ARG_OF_PERICENTER": 278.2661, "MEAN_ANOMALY": 80.9713, "EPHEMERIS_TYPE": 0, "CLASSIFICATION_TYPE": "U", "NORAD_CAT_ID": 31371, "ELEMENT_SET_NO": 999, "REV_AT_EPOCH": 95589, "BSTAR": 0.0010077139, "MEAN_MOTION_DOT": 1.607e-05, "MEAN_MOTION_DDOT": 0}, "tle": {"line1": "1 31371U 99025BSB 25335.52689665  .00001607  00000+0  10077-2 0  9995", "line2": "2 31371  98.7675   8.9036 0077593 278.2661  80.9713 14.04462226955893"}}, "geometry": {"type": "Point", "coordinates": [-86.46590973763371, 81.16781079312258]}}, {"type": "Feature", "properties": {"norad_id": 31372, "name": "FENGYUN 1C DEB", "group": "fengyun-1c-debris", "lat": 45.70655500320446, "lon": 157.00151138535742, "alt_km": 779.028285747946, "timestamp": "2025-12-02T21:34:01.553122+00:00", "meta": {"OBJECT_NAME": "FENGYUN 1C DEB", "OBJECT_ID": "1999-025BSC", "EPOCH": "2025-11-30T21:48:31.869216", "MEAN_MOTION": 14.26400241, "ECCENTRICITY": 0.00335765, "INCLINATION": 99.3732, "RA_OF_ASC_NODE": 325.1261, "ARG_OF_PERICENTER": 108.0646, "MEAN_ANOMALY": 252.4194, "EPHEMERIS_TYPE": 0, "CLASSIFICATION_TYPE": "U", "NORAD_CAT_ID": 31372, "ELEMENT_SET_NO": 999, "REV_AT_EPOCH": 95682, "BSTAR": 0.0015727386, "MEAN_MOTION_DOT": 3.757e-05, "MEAN_MOTION_DDOT": 0}, "tle": {"line1": "1 31372U 99025BSC 25334.90870219  .00003757  00000+0  15727-2 0  9999", "line2": "2 31372  99.3732 325.1261 0033576 108.0646 252.4194 14.26400241956821"}}, "geometry": {"type": "Point", "coordinates": [157.00151138535742, 45.70655500320446]}}, {"type": "Feature", "properties": {"norad_id": 31376, "name": "FENGYUN 1C DEB", "group": "fengyun-1c-debris", "lat": -54.211235711287195, "lon": 59.98960820213488, "alt_km": 680.5200626572214, "timestamp": "2025-12-02T21:34:01.553132+00:00", "meta": {"OBJECT_NAME": "FENGYUN 1C DEB", "OBJECT_ID": "1999-025BSG", "EPOCH": "2025-12-02T07:20:36.131136", "MEAN_MOTION": 14.61313356, "ECCENTRICITY": 0.0050542, "INCLINATION": 98.8328, "RA_OF_ASC_NODE": 251.8134, "ARG_OF_PERICENTER": 301.7339, "MEAN_ANOMALY": 57.8939, "EPHEMERIS_TYPE": 0, "CLASSIFICATION_TYPE": "U", "NORAD_CAT_ID": 31376, "ELEMENT_SET_NO": 999, "REV_AT_EPOCH": 97990, "BSTAR": 0.0029564, "MEAN_MOTION_DOT": 0.00014841, "MEAN_MOTION_DDOT": 0}, "tle": {"line1": "1 31376U 99025BSG 25336.30597374  .00014841  00000+0  29564-2 0  9997", "line2": "2 31376  98.8328 251.8134 0050542 301.7339  57.8939 14.61313356979904"}}, "geometry": {"type": "Point", "coordinates": [59.98960820213488, -54.211235711287195]}}, {"type": "Feature", "properties": {"norad_id": 31378, "name": "FENGYUN 1C DEB", "group": "fengyun-1c-debris", "lat": -38.58781911279996, "lon": 35.76247625632581, "alt_km": 846.3128224406228, "timestamp": "2025-12-02T21:34:01.553143+00:00", "meta": {"OBJECT_NAME": "FENGYUN 1C DEB", "OBJECT_ID": "1999-025BSJ", "EPOCH": "2025-12-01T02:44:28.916448", "MEAN_MOTION": 13.80046912, "ECCENTRICITY": 0.01687472, "INCLINATION": 100.7556, "RA_OF_ASC_NODE": 222.4601, "ARG_OF_PERICENTER": 227.2956, "MEAN_ANOMALY": 131.3877, "EPHEMERIS_TYPE": 0, "CLASSIFICATION_TYPE": "U", "NORAD_CAT_ID": 31378, "ELEMENT_SET_NO": 999, "REV_AT_EPOCH": 94063, "BSTAR": 0.00076935491, "MEAN_MOTION_DOT": 8.34e-06, "MEAN_MOTION_DDOT": 0}, "tle": {"line1": "1 31378U 99025BSJ 25335.11422357  .00000834  00000+0  76935-3 0  9997", "line2": "2 31378 100.7556 222.4601 0168747 227.2956 131.3877 13.80046912940637"}}, "geometry": {"type": "Point", "coordinates": [35.76247625632581, -38.58781911279996]}}, {"type": "Feature", "properties": {"norad_id": 31381, "name": "FENGYUN 1C DEB", "group": "fengyun-1c-debris", "lat": -64.08456914586125, "lon": -137.4828532112013, "alt_km": 917.6877766271837, "timestamp": "2025-12-02T21:34:01.553153+00:00", "meta": {"OBJECT_NAME": "FENGYUN 1C DEB", "OBJECT_ID": "1999-025BSM", "EPOCH": "2025-11-30T23:19:04.057536", "MEAN_MOTION": 14.37002269, "ECCENTRICITY": 0.01993404, "INCLINATION": 98.4914, "RA_OF_ASC_NODE": 58.5204, "ARG_OF_PERICENTER": 67.0189, "MEAN_ANOMALY": 295.1892, "EPHEMERIS_TYPE": 0, "CLASSIFICATION_TYPE": "U", "NORAD_CAT_ID": 31381, "ELEMENT_SET_NO": 999, "REV_AT_EPOCH": 97231, "BSTAR": 0.00048835128, "MEAN_MOTION_DOT": 1.771e-05, "MEAN_MOTION_DDOT": 0}, "tle": {"line1": "1 31381U 99025BSM 25334.97157474  .00001771  00000+0  48835-3 0  9998", "line2": "2 31381  98.4914  58.5204 0199340  67.0189 295.1892 14.37002269972316"}}, "geometry": {"type": "Point", "coordinates": [-137.4828532112013, -64.08456914586125]}}, {"type": "Feature", "properties": {"norad_id": 31383, "name": "FENGYUN 1C DEB", "group": "fengyun-1c-debris", "lat": -52.99283320490129, "lon": 51.06098595908915, "alt_km": 819.9850187270958, "timestamp": "2025-12-02T21:34:01.553163+00:00", "meta": {"OBJECT_NAME": "FENGYUN 1C DEB", "OBJECT_ID": "1999-025BSP", "EPOCH": "2025-11-30T15:52:15.780864", "MEAN_MOTION": 14.05658237, "ECCENTRICITY": 0.01079896, "INCLINATION": 99.0689, "RA_OF_ASC_NODE": 36.5888, "ARG_OF_PERICENTER": 351.3472, "MEAN_ANOMALY": 159.9983, "EPHEMERIS_TYPE": 0, "CLASSIFICATION_TYPE": "U", "NORAD_CAT_ID": 31383, "ELEMENT_SET_NO": 999, "REV_AT_EPOCH": 95199, "BSTAR": 0.0006307032, "MEAN_MOTION_DOT": 1.037e-05, "MEAN_MOTION_DDOT": 0}, "tle": {"line1": "1 31383U 99025BSP 25334.66129376  .00001037  00000+0  63070-3 0  9999", "line2": "2 31383  99.0689  36.5888 0107989 351.3472 159.9983 14.05658237951996"}}, "geometry": {"type": "Point", "coordinates": [51.06098595908915, -52.99283320490129]}}]}